     2              NAVIGATION DATA                         RINEX VERSION / TYPE
CCRINEXN V1.6.0 UX  CDDIS               02-APR-17 13:44     PGM / RUN BY / DATE 
IGS BROADCAST EPHEMERIS FILE                                COMMENT             
    0.1676D-07  0.1490D-07 -0.1192D-06 -0.5960D-07          ION ALPHA           
    0.1085D+06  0.3277D+05 -0.2621D+06 -0.6554D+05          ION BETA            
   -0.186264514923D-08 0.177635683940D-14   233472     1943 DELTA-UTC: A0,A1,T,W
    18                                                      LEAP SECONDS        
                                                            END OF HEADER       
23 17  4  2  9 59 44.0-0.208936631680D-03-0.795807864051D-12 0.000000000000D+00
    0.320000000000D+02 0.197812500000D+02 0.501628037678D-08 0.264223405508D+00
    0.113248825073D-05 0.114616354695D-01 0.928342342377D-05 0.515377206802D+04
    0.359840000000D+05 0.242143869400D-07 0.568471329490D+00 0.117346644402D-06
    0.944886839747D+00 0.188593750000D+03-0.248675416633D+01-0.837856328651D-08
   -0.532522181686D-09 0.100000000000D+01 0.194300000000D+04 0.000000000000D+00
    0.200000000000D+01 0.000000000000D+00-0.200234353542D-07 0.320000000000D+02
    0.288000000000D+05 0.400000000000D+01 0.000000000000D+00 0.000000000000D+00
31 17  4  2  9 59 44.0 0.209753867239D-03-0.238742359215D-11 0.000000000000D+00
    0.410000000000D+02 0.890312500000D+02 0.433018036939D-08-0.143111896838D+01
    0.456720590591D-05 0.846081960481D-02 0.727362930775D-05 0.515367676544D+04
    0.359840000000D+05-0.856816768646D-07 0.165564185373D+01-0.577419996262D-07
    0.967405101791D+00 0.246843750000D+03-0.264443116786D+00-0.805890711440D-08
    0.953611150304D-10 0.100000000000D+01 0.194300000000D+04 0.000000000000D+00
    0.200000000000D+01 0.000000000000D+00-0.135041773319D-07 0.410000000000D+02
    0.290460000000D+05 0.400000000000D+01 0.000000000000D+00 0.000000000000D+00
 1 17  4  2 10  0  0.0 0.525810755789D-04 0.795807864051D-12 0.000000000000D+00
    0.950000000000D+02-0.264062500000D+02 0.450661629009D-08-0.573224100170D+00
   -0.127963721752D-05 0.642205285840D-02 0.100135803223D-04 0.515368841553D+04
    0.360000000000D+05 0.894069671631D-07-0.151266858769D+01 0.121071934700D-06
    0.966615844321D+00 0.189750000000D+03 0.534619849863D+00-0.802247702551D-08
    0.451447376024D-09 0.100000000000D+01 0.194300000000D+04 0.000000000000D+00
    0.200000000000D+01 0.000000000000D+00 0.512227416039D-08 0.950000000000D+02
    0.327360000000D+05 0.400000000000D+01 0.000000000000D+00 0.000000000000D+00
 2 17  4  2 10  0  0.0 0.447324942797D-03-0.727595761418D-11 0.000000000000D+00
    0.260000000000D+02-0.236875000000D+02 0.507735434933D-08-0.221560802474D+00
   -0.121071934700D-05 0.167483650148D-01 0.950694084167D-05 0.515375890350D+04
    0.360000000000D+05-0.968575477600D-07-0.156488382927D+01 0.204890966415D-06
    0.945524031271D+00 0.195312500000D+03-0.199608825924D+01-0.849535386559D-08
    0.421803284086D-09 0.100000000000D+01 0.194300000000D+04 0.000000000000D+00
    0.200000000000D+01 0.000000000000D+00-0.204890966415D-07 0.260000000000D+02
    0.288000000000D+05 0.400000000000D+01 0.000000000000D+00 0.000000000000D+00
 3 17  4  2 10  0  0.0-0.105581711978D-03 0.102318153950D-11 0.000000000000D+00
    0.340000000000D+02-0.456250000000D+01 0.503449542123D-08-0.128967417231D+01
   -0.165775418282D-06 0.541049055755D-03 0.707805156708D-05 0.515376019096D+04
    0.360000000000D+05 0.260770320892D-07-0.470201071476D+00 0.186264514923D-08
    0.959950393101D+00 0.245093750000D+03 0.154957694290D+00-0.820677041636D-08
    0.442875590403D-10 0.100000000000D+01 0.194300000000D+04 0.000000000000D+00
    0.200000000000D+01 0.000000000000D+00 0.186264514923D-08 0.340000000000D+02
    0.288000000000D+05 0.400000000000D+01 0.000000000000D+00 0.000000000000D+00
 4 17  4  2 10  0  0.0 0.131689012051D-05 0.568434188608D-12 0.000000000000D+00
    0.410000000000D+02-0.687500000000D+01 0.533093634061D-08 0.266987146833D+01
   -0.370666384697D-06 0.908799667377D-02 0.346824526787D-05 0.515374111176D+04
    0.360000000000D+05 0.968575477600D-07 0.269656142414D+01-0.143423676491D-06
    0.982361181869D+00 0.325031250000D+03 0.886197296212D+00-0.802461997192D-08
    0.139291516337D-10 0.100000000000D+01 0.194300000000D+04 0.000000000000D+00
    0.200000000000D+01 0.630000000000D+02-0.195577740669D-07 0.410000000000D+02
    0.288000000000D+05 0.400000000000D+01 0.000000000000D+00 0.000000000000D+00
 6 17  4  2 10  0  0.0 0.332580413669D-03 0.500222085975D-11 0.000000000000D+00
    0.970000000000D+02-0.267812500000D+02 0.448947271884D-08-0.395915552866D+00
   -0.159628689289D-05 0.783443683758D-03 0.946037471294D-05 0.515364463615D+04
    0.360000000000D+05 0.502914190292D-07-0.152105605880D+01 0.000000000000D+00
    0.966397351654D+00 0.200093750000D+03-0.120987202327D+01-0.795818863336D-08
    0.432160858377D-09 0.100000000000D+01 0.194300000000D+04 0.000000000000D+00
    0.200000000000D+01 0.000000000000D+00 0.419095158577D-08 0.970000000000D+02
    0.288000000000D+05 0.400000000000D+01 0.000000000000D+00 0.000000000000D+00
 7 17  4  2 10  0  0.0 0.366764608771D-03-0.409272615798D-11 0.000000000000D+00
    0.140000000000D+02 0.103500000000D+03 0.433160900033D-08-0.117949312642D+01
    0.522285699844D-05 0.102597166551D-01 0.840239226818D-05 0.515375297356D+04
    0.360000000000D+05 0.281259417534D-06 0.164493034561D+01-0.117346644402D-06
    0.962649299944D+00 0.218593750000D+03-0.261017678304D+01-0.802319134098D-08
   -0.392873507616D-10 0.100000000000D+01 0.194300000000D+04 0.000000000000D+00
    0.200000000000D+01 0.000000000000D+00-0.111758708954D-07 0.140000000000D+02
    0.288000000000D+05 0.400000000000D+01 0.000000000000D+00 0.000000000000D+00
 8 17  4  2 10  0  0.0-0.548660755157D-04-0.125055521494D-11 0.000000000000D+00
    0.830000000000D+02-0.924062500000D+02 0.425482008748D-08 0.215051270526D+01
   -0.477023422718D-05 0.260171538685D-02 0.801682472229D-05 0.515361768341D+04
    0.360000000000D+05 0.558793544769D-07-0.257541811572D+01 0.279396772385D-07
    0.966386804015D+00 0.226125000000D+03-0.762595695869D+00-0.806640742682D-08
   -0.617882880159D-10 0.100000000000D+01 0.194300000000D+04 0.000000000000D+00
    0.200000000000D+01 0.000000000000D+00 0.465661287308D-08 0.830000000000D+02
    0.288000000000D+05 0.400000000000D+01 0.000000000000D+00 0.000000000000D+00
 9 17  4  2 10  0  0.0 0.334520824254D-03 0.773070496507D-11 0.000000000000D+00
    0.990000000000D+02 0.135000000000D+02 0.471091051405D-08 0.164697602588D+01
    0.532716512680D-06 0.868258881383D-03 0.967830419540D-05 0.515366088677D+04
    0.360000000000D+05-0.745058059692D-08 0.566137755716D+00-0.372529029846D-07
    0.954009991877D+00 0.185312500000D+03 0.185610326670D+01-0.804640659370D-08
   -0.503235247482D-09 0.100000000000D+01 0.194300000000D+04 0.000000000000D+00
    0.200000000000D+01 0.000000000000D+00 0.139698386192D-08 0.990000000000D+02
    0.288000000000D+05 0.400000000000D+01 0.000000000000D+00 0.000000000000D+00
10 17  4  2 10  0  0.0-0.840183347464D-04 0.682121026330D-11 0.000000000000D+00
    0.600000000000D+01-0.712500000000D+01 0.497485007962D-08-0.274903779806D+01
   -0.366941094399D-06 0.238753017038D-02 0.693835318088D-05 0.515366801262D+04
    0.360000000000D+05-0.447034835815D-07-0.473954598889D+00-0.782310962677D-07
    0.960124916302D+00 0.247718750000D+03-0.281041179481D+01-0.819248410699D-08
   -0.228580949885D-10 0.100000000000D+01 0.194300000000D+04 0.000000000000D+00
    0.200000000000D+01 0.000000000000D+00 0.232830643654D-08 0.600000000000D+01
    0.323880000000D+05 0.400000000000D+01 0.000000000000D+00 0.000000000000D+00
12 17  4  2 10  0  0.0 0.386128202081D-03-0.568434188608D-12 0.000000000000D+00
    0.240000000000D+02-0.615625000000D+01 0.391623455546D-08-0.178746043086D+01
   -0.284984707832D-06 0.661617063452D-02 0.353530049324D-05 0.515355930138D+04
    0.360000000000D+05 0.100582838059D-06 0.272812718643D+01-0.670552253723D-07
    0.989615077257D+00 0.325343750000D+03 0.822923710579D+00-0.796354599937D-08
    0.153577825704D-10 0.000000000000D+00 0.194300000000D+04 0.000000000000D+00
    0.200000000000D+01 0.000000000000D+00-0.121071934700D-07 0.240000000000D+02
    0.288000000000D+05 0.400000000000D+01 0.000000000000D+00 0.000000000000D+00
13 17  4  2 10  0  0.0-0.763558782637D-04-0.159161572810D-11 0.000000000000D+00
    0.360000000000D+02 0.139687500000D+02 0.438518266046D-08-0.159436235125D+00
    0.884756445885D-06 0.395368039608D-02 0.100620090962D-04 0.515368761444D+04
    0.360000000000D+05-0.763684511185D-07 0.691508650145D+00-0.298023223877D-07
    0.970048585983D+00 0.190031250000D+03 0.184491547927D+01-0.796354599937D-08
   -0.402159608705D-09 0.100000000000D+01 0.194300000000D+04 0.000000000000D+00
    0.200000000000D+01 0.000000000000D+00-0.111758708954D-07 0.360000000000D+02
    0.340800000000D+05 0.400000000000D+01 0.000000000000D+00 0.000000000000D+00
14 17  4  2 10  0  0.0-0.652768649161D-04-0.159161572810D-11 0.000000000000D+00
    0.180000000000D+02 0.256250000000D+02 0.450197323954D-08 0.120932689026D+01
    0.130757689476D-05 0.885674881283D-02 0.103395432234D-04 0.515363978195D+04
    0.360000000000D+05-0.175088644028D-06 0.652429175288D+00 0.279396772385D-07
    0.962586688514D+00 0.185781250000D+03-0.196207965343D+01-0.806355016494D-08
   -0.426089176896D-09 0.000000000000D+00 0.194300000000D+04 0.000000000000D+00
    0.200000000000D+01 0.000000000000D+00-0.931322574616D-08 0.180000000000D+02
    0.339300000000D+05 0.400000000000D+01 0.000000000000D+00 0.000000000000D+00
